{
  "norad_id": 57194,
  "name": "SITRO-AIS 7 (FARTUSHNIY)",
  "history": [
    {
      "epoch": "2026-03-28T22:23:13.527744Z",
      "apogee_km": 501.44011968815175,
      "perigee_km": 483.58028452510734,
      "latitude_deg": -3.777004360753435e-05,
      "longitude_deg": -11.622901743304164,
      "height_km": 488.45175434512754,
      "semi_major_axis_km": 6870.647202106629,
      "eccentricity": 0.00129972,
      "inclination_deg": 97.515,
      "raan_deg": 150.5296,
      "arg_perigee_deg": 36.9728,
      "mean_anomaly_deg": 323.2402,
      "mean_motion_rev_day": 15.24425795
    },
    {
      "epoch": "2026-03-29T04:41:18.762720Z",
      "apogee_km": 501.39712301647796,
      "perigee_km": 483.57747183867014,
      "latitude_deg": 5.5492385432785924e-05,
      "longitude_deg": -106.14031783185706,
      "height_km": 488.3657032818399,
      "semi_major_axis_km": 6870.624297427574,
      "eccentricity": 0.0012968,
      "inclination_deg": 97.5149,
      "raan_deg": 150.7928,
      "arg_perigee_deg": 36.1129,
      "mean_anomaly_deg": 324.0982,
      "mean_motion_rev_day": 15.24433418
    },
    {
      "epoch": "2026-03-30T04:19:07.813056Z",
      "apogee_km": 501.27201675057586,
      "perigee_km": 483.5967847649854,
      "latitude_deg": -1.4480736548035393e-05,
      "longitude_deg": -100.5777460341195,
      "height_km": 488.09168436415473,
      "semi_major_axis_km": 6870.57140075778,
      "eccentricity": 0.0012863,
      "inclination_deg": 97.5148,
      "raan_deg": 151.7802,
      "arg_perigee_deg": 32.8955,
      "mean_anomaly_deg": 327.308,
      "mean_motion_rev_day": 15.24451023
    },
    {
      "epoch": "2026-03-30T04:19:07.813920Z",
      "apogee_km": 501.27208545628855,
      "perigee_km": 483.5967160592718,
      "latitude_deg": -1.5100605660114224e-05,
      "longitude_deg": -100.57774956265924,
      "height_km": 488.09162666173745,
      "semi_major_axis_km": 6870.57140075778,
      "eccentricity": 0.00128631,
      "inclination_deg": 97.5148,
      "raan_deg": 151.7802,
      "arg_perigee_deg": 32.8955,
      "mean_anomaly_deg": 327.308,
      "mean_motion_rev_day": 15.24451023
    },
    {
      "epoch": "2026-03-30T12:11:43.913760Z",
      "apogee_km": 501.2286023787192,
      "perigee_km": 483.60096507824255,
      "latitude_deg": -8.797011368361164e-05,
      "longitude_deg": 141.27746003166362,
      "height_km": 488.00477790958064,
      "semi_major_axis_km": 6870.551783728481,
      "eccentricity": 0.00128284,
      "inclination_deg": 97.5148,
      "raan_deg": 152.1093,
      "arg_perigee_deg": 31.829,
      "mean_anomaly_deg": 328.3719,
      "mean_motion_rev_day": 15.24457552
    },
    {
      "epoch": "2026-03-30T21:38:51.067680Z",
      "apogee_km": 501.172499092876,
      "perigee_km": 483.61032918179444,
      "latitude_deg": 1.4441093890204116e-05,
      "longitude_deg": -0.49554026907267945,
      "height_km": 487.91119967942683,
      "semi_major_axis_km": 6870.528414137335,
      "eccentricity": 0.00127808,
      "inclination_deg": 97.5146,
      "raan_deg": 152.5043,
      "arg_perigee_deg": 30.587,
      "mean_anomaly_deg": 329.611,
      "mean_motion_rev_day": 15.2446533
    },
    {
      "epoch": "2026-03-31T19:42:07.204608Z",
      "apogee_km": 501.04560953042346,
      "perigee_km": 483.6481702244746,
      "latitude_deg": 5.295321571744584e-06,
      "longitude_deg": 28.70317958529236,
      "height_km": 487.709709091166,
      "semi_major_axis_km": 6870.483889877449,
      "eccentricity": 0.0012661,
      "inclination_deg": 97.5144,
      "raan_deg": 153.426,
      "arg_perigee_deg": 27.4728,
      "mean_anomaly_deg": 332.7176,
      "mean_motion_rev_day": 15.24480149
    },
    {
      "epoch": "2026-04-01T20:54:24.779232Z",
      "apogee_km": 500.93166292652404,
      "perigee_km": 483.6758639051286,
      "latitude_deg": 2.200921815344758e-05,
      "longitude_deg": 10.647923402969157,
      "height_km": 487.50084594837824,
      "semi_major_axis_km": 6870.440763415826,
      "eccentricity": 0.0012558,
      "inclination_deg": 97.5139,
      "raan_deg": 154.4791,
      "arg_perigee_deg": 23.9481,
      "mean_anomaly_deg": 336.2338,
      "mean_motion_rev_day": 15.24494503
    },
    {
      "epoch": "2026-04-02T20:32:10.199040Z",
      "apogee_km": 500.79107097339147,
      "perigee_km": 483.66737020519577,
      "latitude_deg": -3.118048598309484e-06,
      "longitude_deg": 16.225258073325257,
      "height_km": 487.3028163717722,
      "semi_major_axis_km": 6870.366220589293,
      "eccentricity": 0.0012462,
      "inclination_deg": 97.5134,
      "raan_deg": 155.4661,
      "arg_perigee_deg": 20.6807,
      "mean_anomaly_deg": 339.4932,
      "mean_motion_rev_day": 15.24519314
    }
  ]
}